[{"OBJECT_NAME":"COSMOS 2407","OBJECT_ID":"2004-028A","EPOCH":"2026-03-09T18:32:11.166144","MEAN_MOTION":13.76325057,"ECCENTRICITY":0.00396651,"INCLINATION":82.9633,"RA_OF_ASC_NODE":148.4649,"ARG_OF_PERICENTER":168.53,"MEAN_ANOMALY":311.3754,"EPHEMERIS_TYPE":0,"CLASSIFICATION_TYPE":"U","NORAD_CAT_ID":28380,"ELEMENT_SET_NO":999,"REV_AT_EPOCH":8620,"BSTAR":5.9261217e-5,"MEAN_MOTION_DOT":7.4e-7,"MEAN_MOTION_DDOT":0},{"OBJECT_NAME":"COSMOS 1275 DEB","OBJECT_ID":"1981-053NU","EPOCH":"2026-03-06T21:50:42.747936","MEAN_MOTION":13.74453723,"ECCENTRICITY":0.00869787,"INCLINATION":83.024,"RA_OF_ASC_NODE":288.8768,"ARG_OF_PERICENTER":22.3944,"MEAN_ANOMALY":353.6655,"EPHEMERIS_TYPE":0,"CLASSIFICATION_TYPE":"U","NORAD_CAT_ID":39958,"ELEMENT_SET_NO":999,"REV_AT_EPOCH":58867,"BSTAR":0.00089982764,"MEAN_MOTION_DOT":8.89e-6,"MEAN_MOTION_DDOT":0}]
